ANGOSAT 2               
1 54033U 22131A   22312.50373545  .00000140  00000+0  00000+0 0  9999
2 54033   0.0233 265.8761 0000290 332.1078  14.0461  1.00270138   272
BLOCK DM-SL R/B         
1 54034U 22131B   22314.33718032 -.00000125  00000+0  00000+0 0  9991
2 54034   0.0996 291.2001 0083431 166.7467 263.0307  0.97749731   270
HJ-2E                   
1 54035U 22132A   22315.16419968  .00011890  00000+0  49067-3 0  9991
2 54035  97.3935 320.3072 0013511 161.0308 263.4775 15.24108692  4446
2022-132B               
1 54036U 22132B   22315.02651713  .00189698  00000+0  47050-2 0  9994
2 54036  97.3540 320.4958 0029623 209.0205 211.7332 15.39189223  4454
2022-132C               
1 54037U 22132C   22315.26581686  .00025719  00000+0  24492-2 0  9990
2 54037  97.6505 319.4249 0187656  76.4446 285.7537 14.80959637  4338
2022-132D               
1 54038U 22132D   22315.27509361  .00046510  00000+0  21819-2 0  9994
2 54038  97.5882 320.7031 0098851 131.7961 229.1908 15.15188854  4434
CZ-2C R/B               
1 54039U 22132E   22315.24296589  .00004338  00000+0  22325-3 0  9993
2 54039  97.2514 319.3051 0049447 110.1231 250.5332 15.15850282  4438
2022-132F               
1 54040U 22132F   22315.26783578  .00050860  00000+0  27014-2 0  9996
2 54040  97.1588 318.8654 0122625 123.0570 238.2693 15.08786709  4417
2022-132G               
1 54041U 22132G   22315.23191734  .00022417  00000+0  19035-2 0  9992
2 54041  97.1914 318.1618 0150233  72.0344 289.7049 14.89475084  4350
YAOGAN-36 02A           
1 54042U 22133A   22315.19352870 -.00010973  00000+0 -44556-3 0  9992
2 54042  34.9998 114.1766 0005965 165.0007   9.5375 15.23662328  4189
YAOGAN-36 02B           
1 54043U 22133B   22315.22456019  .00011713  00000+0  47586-3 0  9994
2 54043  34.9973 113.9737 0005491 186.6771 162.6261 15.23765986  4188
CZ-2D R/B               
1 54044U 22133C   22314.81070680  .00027407  00000+0  10282-2 0  9994
2 54044  34.9948 116.2444 0006301 171.0743 189.0085 15.26279102  4135
YAOGAN-36 02C           
1 54045U 22133D   22315.22259259  .00015781  00000+0  64143-3 0  9990
2 54045  34.9964 113.9472 0007084 181.2696 171.2812 15.23694268  4185
CZ-2D DEB               
1 54046U 22133E   22314.62101962  .00029427  00000+0  11194-2 0  9990
2 54046  34.9964 117.5419 0005883 157.7166 202.3679 15.25811228  4100
2022-134A               
1 54048U 22134A   22312.80000000 -.00000104  00000+0  00000+0 0  9995
2 54048  19.1010 296.9110 7600857 186.1020 195.6740  1.12706066   308
2022-134B               
1 54049U 22134B   22314.58507635  .00000155  00000+0  10339-2 0  9993
2 54049  26.6133 295.8742 8052420 188.4091 135.4139  1.34300980   356
COSMOS 2560             
1 54050U 22135A   22315.27132285  .00292972  32638-4  10210-2 0  9993
2 54050  96.3438  41.2709 0007911 160.2731 282.2124 15.89284682  4176
STARLINK-5195           
1 54051U 22136A   22314.91667824 -.01217609  00000+0 -15471-1 0  9990
2 54051  53.2169  42.6654 0001737  33.3018 209.9881 15.61631098  1307
STARLINK-5189           
1 54052U 22136B   22315.33334491  .00039369  00000+0  28358-3 0  9991
2 54052  53.2173  39.9721 0002512  35.7421 359.3852 15.73200594  3938
STARLINK-5176           
1 54053U 22136C   22314.91667824 -.01225328  00000+0 -15556-1 0  9993
2 54053  53.2170  42.6632 0001609  31.9364 212.5072 15.61672101  1305
STARLINK-5163           
1 54054U 22136D   22315.33334491 -.01201919  00000+0 -15805-1 0  9999
2 54054  53.2171  40.6294 0005970 273.1203 157.4871 15.60660519  3929
STARLINK-5158           
1 54055U 22136E   22315.33334491 -.01216929  00000+0 -16075-1 0  9997
2 54055  53.2171  40.6332 0001704  33.1446  36.1300 15.60631431  3928
STARLINK-5226           
1 54056U 22136F   22314.91667824 -.01221649  00000+0 -15440-1 0  9990
2 54056  53.2169  42.6540 0001621  40.9381 207.6463 15.61777768  1301
STARLINK-5216           
1 54057U 22136G   22314.91667824 -.00005124  00000+0 -47706-4 0  9991
2 54057  53.2159  42.6506 0002290  53.5299 199.5150 15.63979393  1306
STARLINK-5167           
1 54058U 22136H   22314.91667824 -.01214816  00000+0 -15277-1 0  9998
2 54058  53.2168  42.6462 0001546  42.1880 210.0677 15.61890144  1308
STARLINK-5173           
1 54059U 22136J   22315.33334491 -.01223413  00000+0 -16075-1 0  9997
2 54059  53.2171  40.6230 0001346  53.0400  21.2790 15.60787304  3921
STARLINK-5169           
1 54060U 22136K   22314.91667824  .00028489  00000+0  20695-3 0  9999
2 54060  53.2146  41.6678 0002073  22.1774 347.6442 15.73172338  1309
STARLINK-5209           
1 54061U 22136L   22315.33334491  .00094005  00000+0  38652-3 0  9997
2 54061  53.2162  39.1477 0006315 159.6792 278.8042 15.85218685  3948
STARLINK-5170           
1 54062U 22136M   22315.33334491 -.01195934  00000+0 -15642-1 0  9996
2 54062  53.2172  40.6162 0001187  63.2988  14.1087 15.60841216  3920
STARLINK-5225           
1 54063U 22136N   22315.33334491 -.01207110  00000+0 -15773-1 0  9992
2 54063  53.2171  40.6140 0001670  34.2918  44.3820 15.60888273  3928
STARLINK-5172           
1 54064U 22136P   22315.33334491 -.00072106  00000+0 -51194-3 0  9996
2 54064  53.2150  40.3469 0003272   6.7913 202.8652 15.73273175  3934
STARLINK-5187           
1 54065U 22136Q   22315.33334491 -.01219478  00000+0 -15899-1 0  9993
2 54065  53.2171  40.6092 0001782  33.1077  48.0683 15.60974315  3925
STARLINK-5151           
1 54066U 22136R   22314.91667824 -.01235342  00000+0 -15486-1 0  9996
2 54066  53.2169  42.6385 0001623  32.4484 223.9701 15.62018781  1301
STARLINK-5174           
1 54067U 22136S   22314.91667824 -.01248502  00000+0 -15597-1 0  9992
2 54067  53.2170  42.6321 0001371  51.0035 208.9616 15.62140353  1302
STARLINK-5222           
1 54068U 22136T   22315.33334491 -.01219485  00000+0 -15880-1 0  9994
2 54068  53.2171  40.6061 0001183  80.6838   1.7252 15.61010762  3927
STARLINK-5223           
1 54069U 22136U   22315.33334491 -.01208360  00000+0 -15605-1 0  9990
2 54069  53.2172  40.5942 0001803  31.7971  56.8175 15.61191977  3923
STARLINK-5181           
1 54070U 22136V   22314.91667824 -.01261247  00000+0 -15745-1 0  9992
2 54070  53.2170  42.6292 0001360  45.7884 215.3713 15.62188805  1307
STARLINK-5168           
1 54071U 22136W   22315.33334491 -.01214783  00000+0 -15717-1 0  9993
2 54071  53.2171  40.5968 0001673  36.0510  51.3488 15.61160974  3925
STARLINK-5144           
1 54072U 22136X   22314.91667824 -.01223175  00000+0 -15208-1 0  9996
2 54072  53.2170  42.6268 0001651  34.2137 228.1576 15.62199207  1306
STARLINK-5146           
1 54073U 22136Y   22314.91667824  .00024472  00000+0  17842-3 0  9991
2 54073  53.2159  42.4527 0002935  14.4648 336.1608 15.73178204  1305
STARLINK-5192           
1 54074U 22136Z   22315.33334491 -.01248565  00000+0 -16109-1 0  9997
2 54074  53.2172  40.5917 0005747 273.1169 176.7426 15.61263046  3921
STARLINK-5212           
1 54075U 22136AA  22314.91667824  .00027181  00000+0  19749-3 0  9991
2 54075  53.2165  42.4529 0002979  23.5675 327.6342 15.73193859  1308
STARLINK-5201           
1 54076U 22136AB  22314.91667824 -.01214621  00000+0 -15004-1 0  9990
2 54076  53.2170  42.6174 0001676  35.2997 231.7821 15.62343959  1306
STARLINK-5171           
1 54077U 22136AC  22315.33334491  .00133454  00000+0  94164-3 0  9996
2 54077  53.2163  40.3867 0003054  17.3184 176.6606 15.73162383  3924
STARLINK-5138           
1 54078U 22136AD  22314.91667824  .00025144  00000+0  18315-3 0  9999
2 54078  53.2164  42.4513 0003347  15.6449 336.8088 15.73181133  1305
STARLINK-5175           
1 54079U 22136AE  22314.91667824  .00025821  00000+0  18844-3 0  9999
2 54079  53.2165  42.4477 0002948  13.0472 340.6639 15.73121198  1300
STARLINK-5160           
1 54080U 22136AF  22314.91667824  .00030322  00000+0  21995-3 0  9994
2 54080  53.2163  42.4511 0002661  18.6518 333.2117 15.73169718  1302
STARLINK-5165           
1 54081U 22136AG  22314.91667824  .00016556  00000+0  12210-3 0  9998
2 54081  53.2160  42.4434 0002817  19.4389 335.3929 15.73208693  1302
STARLINK-5210           
1 54082U 22136AH  22314.91667824  .00026188  00000+0  19107-3 0  9993
2 54082  53.2164  42.4463 0002816  13.4316 340.8661 15.73118758  1308
STARLINK-5178           
1 54083U 22136AJ  22314.91667824  .00027088  00000+0  19692-3 0  9993
2 54083  53.2162  42.4402 0002870  21.5599 335.6481 15.73183098  1304
STARLINK-5183           
1 54084U 22136AK  22315.33334491  .00044849  00000+0  32246-3 0  9996
2 54084  53.2162  40.3811 0002993  11.4843 185.1063 15.73182669  3930
STARLINK-5166           
1 54085U 22136AL  22314.91667824  .00028724  00000+0  20851-3 0  9992
2 54085  53.2161  42.4386 0002780  21.9034 335.9048 15.73182883  1307
STARLINK-5211           
1 54086U 22136AM  22315.33334491  .00043134  00000+0  31033-3 0  9997
2 54086  53.2164  40.3805 0003380  12.4925 184.6971 15.73183389  3910
STARLINK-5184           
1 54087U 22136AN  22315.33334491  .00045879  00000+0  32904-3 0  9994
2 54087  53.2164  40.3760 0003311   9.3633 190.2092 15.73229945  3912
STARLINK-5153           
1 54088U 22136AP  22315.33334491  .00047081  00000+0  33752-3 0  9994
2 54088  53.2164  40.3790 0002869  13.5744 184.2326 15.73229986  3911
STARLINK-5143           
1 54089U 22136AQ  22315.33334491  .00041792  00000+0  30262-3 0  9991
2 54089  53.2159  40.3729 0003054  20.5478 180.7471 15.73047470  3915
STARLINK-5177           
1 54090U 22136AR  22314.91667824  .00027851  00000+0  20281-3 0  9995
2 54090  53.2162  42.4344 0002484  30.7812 328.8705 15.73127115  1309
STARLINK-5221           
1 54091U 22136AS  22315.33334491  .00044276  00000+0  31779-3 0  9998
2 54091  53.2168  40.3706 0003859   7.2741 195.8549 15.73225415  3911
STARLINK-5190           
1 54092U 22136AT  22314.91667824 -.00045044  00000+0 -31708-3 0  9999
2 54092  53.2169  42.4385 0003165  11.8412 346.9741 15.73276318  1307
